[{"OBJECT_NAME":"STARLINK-5610","OBJECT_ID":"2023-094AC","EPOCH":"2026-03-09T22:00:01.999584","MEAN_MOTION":15.07827985,"ECCENTRICITY":0.0001146,"INCLINATION":42.9997,"RA_OF_ASC_NODE":16.3536,"ARG_OF_PERICENTER":239.3769,"MEAN_ANOMALY":24.0223,"EPHEMERIS_TYPE":0,"CLASSIFICATION_TYPE":"U","NORAD_CAT_ID":57244,"ELEMENT_SET_NO":999,"REV_AT_EPOCH":572,"BSTAR":0.0018478032,"MEAN_MOTION_DOT":0.00028681,"MEAN_MOTION_DDOT":0},{"OBJECT_NAME":"COSMOS 1174 DEB","OBJECT_ID":"1980-030Y","EPOCH":"2026-03-09T13:55:47.203680","MEAN_MOTION":14.93245018,"ECCENTRICITY":0.0309747,"INCLINATION":66.0991,"RA_OF_ASC_NODE":136.4359,"ARG_OF_PERICENTER":294.7315,"MEAN_ANOMALY":62.1863,"EPHEMERIS_TYPE":0,"CLASSIFICATION_TYPE":"U","NORAD_CAT_ID":12354,"ELEMENT_SET_NO":999,"REV_AT_EPOCH":38214,"BSTAR":0.00037697,"MEAN_MOTION_DOT":0.00010173,"MEAN_MOTION_DDOT":0}]
